NORAD_CAT_ID,OBJECT_NAME,OBJECT_TYPE,EPOCH,MEAN_MOTION,ECCENTRICITY,INCLINATION,RA_OF_ASC_NODE,ARG_OF_PERICENTER,MEAN_ANOMALY,BSTAR,MEAN_MOTION_DOT,MEAN_MOTION_DDOT,TLE_LINE0,TLE_LINE1,TLE_LINE2,SEMIMAJOR_AXIS,PERIOD,APOGEE,PERIGEE,DECAYED
52553.0,STARLINK-3858,PAYLOAD,2022-11-04 23:56:26,15.0885618,0.000244,53.2179,209.0223,37.087,323.029,0.00041939,6.396e-05,0.0,0 STARLINK-3858,1 52553U 22051W   22308.99753397  .00006396  00000-0  41939-3 0  9990,2 52553  53.2179 209.0223 0002440  37.0870 323.0290 15.08856180 27169,6917.831,95.437,541.384,538.008,0.0
52553.0,STARLINK-3858,PAYLOAD,2022-11-05 23:47:16,15.08812021,0.0002417,53.2188,204.5601,35.5793,324.536,0.00019297,2.782e-05,0.0,0 STARLINK-3858,1 52553U 22051W   22309.99116083  .00002782  00000-0  19297-3 0  9993,2 52553  53.2188 204.5601 0002417  35.5793 324.5360 15.08812021 27384,6917.965999999999,95.439,541.503,538.159,0.0
52553.0,STARLINK-3858,PAYLOAD,2022-11-06 20:27:17,15.08834546,0.0002413,53.2186,200.6971,36.9568,323.159,0.00081003,0.00012625,0.0,0 STARLINK-3858,1 52553U 22051W   22310.85229090  .00012625  00000-0  81003-3 0  9994,2 52553  53.2186 200.6971 0002413  36.9568 323.1590 15.08834546 27511,6917.897,95.438,541.431,538.0930000000002,0.0
52553.0,STARLINK-3858,PAYLOAD,2022-11-07 09:10:23,15.08839301,0.0002329,53.2183,198.3172,36.4024,323.7126,0.00043268,6.605e-05,0.0,0 STARLINK-3858,1 52553U 22051W   22311.38221262  .00006605  00000-0  43268-3 0  9998,2 52553  53.2183 198.3172 0002329  36.4024 323.7126 15.08839301 27595,6917.8830000000025,95.438,541.359,538.136,0.0
52553.0,STARLINK-3858,PAYLOAD,2022-11-08 02:39:37,15.08859953,0.000231,53.2179,195.0466,37.1717,322.9435,0.00077158,0.0001202,0.0,0 STARLINK-3858,1 52553U 22051W   22312.11084560  .00012020  00000-0  77158-3 0  9991,2 52553  53.2179 195.0466 0002310  37.1717 322.9435 15.08859953 27709,6917.819,95.436,541.2819999999998,538.086,0.0
52553.0,STARLINK-3858,PAYLOAD,2022-11-08 09:01:09,15.08863733,0.0001916,53.2183,193.8576,32.6126,327.4984,0.00058509,9.042e-05,0.0,0 STARLINK-3858,1 52553U 22051W   22312.37579914  .00009042  00000-0  58509-3 0  9990,2 52553  53.2183 193.8576 0001916  32.6126 327.4984 15.08863733 27673,6917.808000000001,95.436,540.998,538.347,0.0
52553.0,STARLINK-3858,PAYLOAD,2022-11-09 21:35:00,15.08844503,0.0001641999999999,53.2181,187.0186,55.8263,304.2885,0.00043428,6.631e-05,0.0,0 STARLINK-3858,1 52553U 22051W   22313.89930937  .00006631  00000-0  43428-3 0  9999,2 52553  53.2181 187.0186 0001642  55.8263 304.2885 15.08844503 27978,6917.8669999999975,95.437,540.868,538.596,0.0
52553.0,STARLINK-3858,PAYLOAD,2022-11-10 03:56:33,15.0881236,0.00022,53.2165,185.8293,37.4013,322.7132,-0.00074205,-0.0001207,0.0,0 STARLINK-3858,1 52553U 22051W   22314.16427111 -.00012070  00000-0 -74205-3 0  9998,2 52553  53.2165 185.8293 0002200  37.4013 322.7132 15.08812360 28017,6917.965,95.439,541.352,538.308,0.0
52553.0,STARLINK-3858,PAYLOAD,2022-11-10 08:42:42,15.08817359,0.0002134,53.2167,184.9371,35.7575,324.356,-0.00044384,-7.341e-05,0.0,0 STARLINK-3858,1 52553U 22051W   22314.36299511 -.00007341  00000-0 -44384-3 0  9991,2 52553  53.2167 184.9371 0002134  35.7575 324.3560 15.08817359 27976,6917.95,95.439,541.2909999999998,538.3380000000002,0.0
52553.0,STARLINK-3858,PAYLOAD,2022-11-10 15:04:16,15.08819695,0.0003058999999999,53.2168,183.7468,52.723,307.4041,-0.00029996,-5.057e-05,0.0,0 STARLINK-3858,1 52553U 22051W   22314.62796446 -.00005057  00000-0 -29996-3 0  9993,2 52553  53.2168 183.7468 0003059  52.7230 307.4041 15.08819695 28089,6917.941999999999,95.439,541.924,537.691,0.0
52553.0,STARLINK-3858,PAYLOAD,2022-11-10 19:50:25,15.08824246,0.0002149,53.2165,182.8551,35.9331,324.1806,-5.2568e-05,-1.124e-05,0.0,0 STARLINK-3858,1 52553U 22051W   22314.82668640 -.00001124  00000-0 -52568-4 0  9992,2 52553  53.2165 182.8551 0002149  35.9331 324.1806 15.08824246 28042,6917.929,95.439,541.28,538.307,0.0
52553.0,STARLINK-3858,PAYLOAD,2022-11-11 08:33:31,15.0883101,0.0002309,53.2164,180.4763,37.1759,322.9392,0.00049426,7.585e-05,0.0,0 STARLINK-3858,1 52553U 22051W   22315.35661250  .00007585  00000-0  49426-3 0  9994,2 52553  53.2164 180.4763 0002309  37.1759 322.9392 15.08831010 28195,6917.908,95.438,541.37,538.1759999999998,0.0
52553.0,STARLINK-3858,PAYLOAD,2022-11-11 21:16:36,15.0884656,0.0002384,53.2162,178.0974,38.1189,321.9971,0.00086156,0.00013453,0.0,0 STARLINK-3858,1 52553U 22051W   22315.88653334  .00013453  00000-0  86156-3 0  9998,2 52553  53.2162 178.0974 0002384  38.1189 321.9971 15.08846560 28201,6917.86,95.437,541.375,538.076,0.0
52553.0,STARLINK-3858,PAYLOAD,2022-11-12 14:45:50,15.08859658,0.000247,53.2163,174.8264,39.5701,320.5471,0.00066715,0.00010351,0.0,0 STARLINK-3858,1 52553U 22051W   22316.61516707  .00010351  00000-0  66715-3 0  9995,2 52553  53.2163 174.8264 0002470  39.5701 320.5471 15.08859658 28380,6917.82,95.436,541.394,537.977,0.0
52553.0,STARLINK-3858,PAYLOAD,2022-11-12 21:07:22,15.08853328,0.0002485,53.2166,173.637,39.5747,320.5426,0.00024201,3.567e-05,0.0,0 STARLINK-3858,1 52553U 22051W   22316.88012573  .00003567  00000-0  24201-3 0  9991,2 52553  53.2166 173.6370 0002485  39.5747 320.5426 15.08853328 28359,6917.84,95.437,541.424,537.986,0.0
52553.0,STARLINK-3858,PAYLOAD,2022-11-13 00:18:09,15.08852986,0.0002486,53.2167,173.0422,39.8232,320.2942,0.00026518,3.936e-05,0.0,0 STARLINK-3858,1 52553U 22051W   22317.01260518  .00003936  00000-0  26518-3 0  9994,2 52553  53.2167 173.0422 0002486  39.8232 320.2942 15.08852986 28444,6917.840999999999,95.437,541.425,537.986,0.0
52553.0,STARLINK-3858,PAYLOAD,2022-11-13 17:47:23,15.088458800000002,0.0002519,53.2169,169.7712,41.5908,318.5276,4.2901e-05,3.95e-06,0.0,0 STARLINK-3858,1 52553U 22051W   22317.74124459  .00000395  00000-0  42901-4 0  9998,2 52553  53.2169 169.7712 0002519  41.5908 318.5276 15.08845880 28554,6917.861999999999,95.437,541.47,537.985,0.0
52553.0,STARLINK-3858,PAYLOAD,2022-11-14 00:08:56,15.08844673,0.0002457,53.2173,168.5818,40.6777,319.4398,1.7106e-05,-1.6e-07,0.0,0 STARLINK-3858,1 52553U 22051W   22318.00620477 -.00000016  00000-0  17106-4 0  9999,2 52553  53.2173 168.5818 0002457  40.6777 319.4398 15.08844673 28529,6917.866,95.437,541.431,538.031,0.0
52553.0,STARLINK-3858,PAYLOAD,2022-11-14 17:38:10,15.08836714,0.0002439,53.2171,165.3108,39.7447,320.3723,-5.3833e-05,-1.145e-05,0.0,0 STARLINK-3858,1 52553U 22051W   22318.73484719 -.00001145  00000-0 -53833-4 0  9998,2 52553  53.2171 165.3108 0002439  39.7447 320.3723 15.08836714 28639,6917.89,95.438,541.443,538.068,0.0
52553.0,STARLINK-3858,PAYLOAD,2022-11-14 22:24:20,15.0883545,0.0002427,53.2182,164.4188,39.6335,320.4834,-2.3106e-05,-6.56e-06,0.0,0 STARLINK-3858,1 52553U 22051W   22318.93357115 -.00000656  00000-0 -23106-4 0  9995,2 52553  53.2182 164.4188 0002427  39.6335 320.4834 15.08835450 28732,6917.894,95.438,541.438,538.08,0.0
52553.0,STARLINK-3858,PAYLOAD,2022-11-15 01:35:06,15.08836834,0.0002409,53.2184,163.82399999999996,40.6398,319.4774,-2.1293e-05,-6.27e-06,0.0,0 STARLINK-3858,1 52553U 22051W   22319.06605014 -.00000627  00000-0 -21293-4 0  9997,2 52553  53.2184 163.8240 0002409  40.6398 319.4774 15.08836834 28689,6917.89,95.438,541.422,538.089,0.0
52553.0,STARLINK-3858,PAYLOAD,2022-11-15 20:39:44,15.08839195,0.0002448,53.2182,160.256,39.756,320.3612,5.9534e-05,6.59e-06,0.0,0 STARLINK-3858,1 52553U 22051W   22319.86092764  .00000659  00000-0  59534-4 0  9999,2 52553  53.2182 160.2560 0002448  39.7560 320.3612 15.08839195 28805,6917.8830000000025,95.438,541.441,538.054,0.0
52553.0,STARLINK-3858,PAYLOAD,2022-11-15 23:50:30,15.08840157,0.000246,53.2182,159.6613,40.0785,320.0388,6.5126e-05,7.48e-06,0.0,0 STARLINK-3858,1 52553U 22051W   22319.99340700  .00000748  00000-0  65126-4 0  9992,2 52553  53.2182 159.6613 0002460  40.0785 320.0388 15.08840157 28890,6917.88,95.438,541.447,538.043,0.0
52553.0,STARLINK-3858,PAYLOAD,2022-11-16 14:08:59,15.08832037,0.0002439,53.2182,156.9853,41.3034,318.8142,8.5086e-05,1.066e-05,0.0,0 STARLINK-3858,1 52553U 22051W   22320.58957273  .00001066  00000-0  85086-4 0  9999,2 52553  53.2182 156.9853 0002439  41.3034 318.8142 15.08832037 28984,6917.905,95.438,541.457,538.082,0.0
52553.0,STARLINK-3858,PAYLOAD,2022-11-16 18:55:08,15.08828467,0.0002441,53.2181,156.0932,41.3005,318.8171,4.9283e-05,4.96e-06,0.0,0 STARLINK-3858,1 52553U 22051W   22320.78829717  .00000496  00000-0  49283-4 0  9997,2 52553  53.2181 156.0932 0002441  41.3005 318.8171 15.08828467 28943,6917.916,95.438,541.469,538.092,0.0
52553.0,STARLINK-3858,PAYLOAD,2022-11-16 23:41:18,15.08827222,0.000246,53.2181,155.2012,41.4594,318.6584,3.2081e-05,2.22e-06,0.0,0 STARLINK-3858,1 52553U 22051W   22320.98701951  .00000222  00000-0  32081-4 0  9993,2 52553  53.2181 155.2012 0002460  41.4594 318.6584 15.08827222 29044,6917.919,95.438,541.486,538.0830000000002,0.0
52553.0,STARLINK-3858,PAYLOAD,2022-11-17 13:59:46,15.08832949,0.0002423,53.2181,152.5247,43.4231,316.6952,3.3234e-05,2.4e-06,0.0,0 STARLINK-3858,1 52553U 22051W   22321.58317938  .00000240  00000-0  33234-4 0  9999,2 52553  53.2181 152.5247 0002423  43.4231 316.6952 15.08832949 29064,6917.901999999999,95.438,541.443,538.091,0.0
52553.0,STARLINK-3858,PAYLOAD,2022-11-17 21:56:42,15.0883596,0.0002438,53.2182,151.03799999999995,43.7718,316.3468,1.5422e-05,-4.3e-07,0.0,0 STARLINK-3858,1 52553U 22051W   22321.91437874 -.00000043  00000-0  15422-4 0  9999,2 52553  53.2182 151.0380 0002438  43.7718 316.3468 15.08835960 29184,6917.893,95.438,541.444,538.071,0.0
52553.0,STARLINK-3858,PAYLOAD,2022-11-18 12:15:10,15.08837325,0.0002436,53.2184,148.3617,43.4345,316.6839,4.8642e-05,4.86e-06,0.0,0 STARLINK-3858,1 52553U 22051W   22322.51053893  .00000486  00000-0  48642-4 0  9991,2 52553  53.2184 148.3617 0002436  43.4345 316.6839 15.08837325 29204,6917.889,95.438,541.439,538.068,0.0
